NORAD_CAT_ID,OBJECT_NAME,OBJECT_TYPE,EPOCH,MEAN_MOTION,ECCENTRICITY,INCLINATION,RA_OF_ASC_NODE,ARG_OF_PERICENTER,MEAN_ANOMALY,BSTAR,MEAN_MOTION_DOT,MEAN_MOTION_DDOT,TLE_LINE0,TLE_LINE1,TLE_LINE2,SEMIMAJOR_AXIS,PERIOD,APOGEE,PERIGEE,DECAYED
49725.0,STARLINK-3218,PAYLOAD,2022-04-04 22:00:00,15.08815349,0.0002217,53.2161,110.0523,35.9283,27.1043,0.0034818,0.00055525,0.0,0 STARLINK-3218,1 49725U 21115B   22094.91667824  .00055525  00000-0  34818-2 0  9995,2 49725  53.2161 110.0523 0002217  35.9283  27.1043 15.08815349  3601,6917.956,95.439,541.354,538.2869999999998,0.0
49725.0,STARLINK-3218,PAYLOAD,2022-04-05 04:00:00,15.08861075,0.0002336,53.2165,108.9308,36.7889,304.9254,-0.0011525,-0.00018595,0.0,0 STARLINK-3218,1 49725U 21115B   22095.16667824 -.00018595  00000-0 -11525-2 0  9991,2 49725  53.2165 108.9308 0002336  36.7889 304.9254 15.08861075 20083,6917.816,95.436,541.297,538.065,0.0
49725.0,STARLINK-3218,PAYLOAD,2022-04-05 14:00:01,15.08859335,0.0002499,53.2164,107.0611,32.9265,53.3564,-0.00055447,-9.107e-05,0.0,0 STARLINK-3218,1 49725U 21115B   22095.58335648 -.00009107  00000-0 -55447-3 0  9994,2 49725  53.2164 107.0611 0002499  32.9265  53.3564 15.08859335  3609,6917.821,95.436,541.415,537.9580000000002,0.0
49725.0,STARLINK-3218,PAYLOAD,2022-04-05 22:00:00,15.08824456,0.0002271,53.2169,105.5631,36.0511,61.7957,0.0017214,0.00027203,0.0,0 STARLINK-3218,1 49725U 21115B   22095.91667824  .00027203  00000-0  17214-2 0  9999,2 49725  53.2169 105.5631 0002271  36.0511  61.7957 15.08824456  3601,6917.928000000001,95.439,541.364,538.222,0.0
49725.0,STARLINK-3218,PAYLOAD,2022-04-06 04:00:00,15.08854114,0.0002373,53.2173,104.4418,35.8981,340.6337,-0.0014538,-0.00023361,0.0,0 STARLINK-3218,1 49725U 21115B   22096.16667824 -.00023361  00000-0 -14538-2 0  9996,2 49725  53.2173 104.4418 0002373  35.8981 340.6337 15.08854114 20231,6917.837,95.437,541.344,538.061,0.0
49725.0,STARLINK-3218,PAYLOAD,2022-04-06 14:00:01,15.08851089,0.0002515,53.2172,102.572,33.5205,87.5078,-5.6912e-05,-1.194e-05,0.0,0 STARLINK-3218,1 49725U 21115B   22096.58334491 -.00001194  00000-0 -56912-4 0  9997,2 49725  53.2172 102.5720 0002515  33.5205  87.5078 15.08851089  3606,6917.846,95.437,541.451,537.972,0.0
49725.0,STARLINK-3218,PAYLOAD,2022-04-06 20:00:01,15.08836379,0.0002303,53.2175,101.4484,36.3773,3.3658,0.0018177,0.00028757,0.0,0 STARLINK-3218,1 49725U 21115B   22096.83334491  .00028757  00000-0  18177-2 0  9996,2 49725  53.2175 101.4484 0002303  36.3773   3.3658 15.08836379 20334,6917.891,95.438,541.35,538.163,0.0
49725.0,STARLINK-3218,PAYLOAD,2022-04-06 22:00:00,15.08844164,0.0002296,53.2176,101.0741,37.1366,95.5047,0.00085743,0.00013386,0.0,0 STARLINK-3218,1 49725U 21115B   22096.91667824  .00013386  00000-0  85743-3 0  9990,2 49725  53.2176 101.0741 0002296  37.1366  95.5047 15.08844164  3567,6917.868,95.437,541.321,538.144,0.0
49725.0,STARLINK-3218,PAYLOAD,2022-04-07 14:00:01,15.08848088,0.0002479,53.2175,98.083,33.6814,122.1562,-0.00063985,-0.0001046,0.0,0 STARLINK-3218,1 49725U 21115B   22097.58334491 -.00010460  00000-0 -63985-3 0  9991,2 49725  53.2175  98.0830 0002479  33.6814 122.1562 15.08848088  3605,6917.856,95.437,541.436,538.006,0.0
49725.0,STARLINK-3218,PAYLOAD,2022-04-07 20:00:01,15.08823874,0.0002263,53.2178,96.9595,36.6222,37.9272,0.0029448,0.00046871,0.0,0 STARLINK-3218,1 49725U 21115B   22097.83334491  .00046871  00000-0  29448-2 0  9997,2 49725  53.2178  96.9595 0002263  36.6222  37.9272 15.08823874 20482,6917.93,95.439,541.36,538.229,0.0
49725.0,STARLINK-3218,PAYLOAD,2022-04-07 22:00:00,15.08831576,0.0002262,53.2179,96.5853,37.7398,129.7062,0.0027577,0.00043865,0.0,0 STARLINK-3218,1 49725U 21115B   22097.91667824  .00043865  00000-0  27577-2 0  9996,2 49725  53.2179  96.5853 0002262  37.7398 129.7062 15.08831576  3566,6917.906,95.438,541.336,538.206,0.0
49725.0,STARLINK-3218,PAYLOAD,2022-04-08 12:00:00,15.08830792,0.0002442,53.2176,93.9686,32.5497,65.2156,0.0013174,0.00020736,0.0,0 STARLINK-3218,1 49725U 21115B   22098.50001157  .00020736  00000-0  13174-2 0  9993,2 49725  53.2176  93.9686 0002442  32.5497  65.2156 15.08830792 20589,6917.909000000002,95.438,541.4630000000002,538.0840000000002,0.0
49725.0,STARLINK-3218,PAYLOAD,2022-04-08 14:00:03,15.08848014,0.0002395,53.2176,93.5939,33.8301,156.9546,-0.00090625,-0.00014686,0.0,0 STARLINK-3218,1 49725U 21115B   22098.58336806 -.00014686  00000-0 -90625-3 0  9999,2 49725  53.2176  93.5939 0002395  33.8301 156.9546 15.08848014  3602,6917.856,95.437,541.378,538.064,0.0
49725.0,STARLINK-3218,PAYLOAD,2022-04-08 22:00:00,15.08832099,0.0002189,53.2177,92.0964,37.9302,164.3287,0.0021039,0.00033348,0.0,0 STARLINK-3218,1 49725U 21115B   22098.91667824  .00033348  00000-0  21039-2 0  9999,2 49725  53.2177  92.0964 0002189  37.9302 164.3287 15.08832099  3579,6917.905,95.438,541.284,538.255,0.0
49725.0,STARLINK-3218,PAYLOAD,2022-04-09 04:00:00,15.0886815,0.0002295,53.2178,90.9755,35.7938,85.1567,-0.0043371,-0.00068711,0.0,0 STARLINK-3218,1 49725U 21115B   22099.16667824 -.00068711  00000-0 -43371-2 0  9994,2 49725  53.2178  90.9755 0002295  35.7938  85.1567 15.08868150 20683,6917.794,95.436,541.247,538.072,0.0
49725.0,STARLINK-3218,PAYLOAD,2022-04-09 12:00:00,15.08819292,0.0002388,53.2172,89.4797,32.4213,100.1253,0.0011597,0.00018207,0.0,0 STARLINK-3218,1 49725U 21115B   22099.50001157  .00018207  00000-0  11597-2 0  9991,2 49725  53.2172  89.4797 0002388  32.4213 100.1253 15.08819292 20738,6917.944,95.439,541.461,538.1569999999998,0.0
49725.0,STARLINK-3218,PAYLOAD,2022-04-09 14:00:01,15.08840224,0.0002326,53.2173,89.1051,33.7599,191.6753,-0.0015347,-0.00024631,0.0,0 STARLINK-3218,1 49725U 21115B   22099.58334491 -.00024631  00000-0 -15347-2 0  9996,2 49725  53.2173  89.1051 0002326  33.7599 191.6753 15.08840224  3608,6917.88,95.438,541.354,538.136,0.0
49725.0,STARLINK-3218,PAYLOAD,2022-04-09 22:00:00,15.08835432,0.0002203,53.2175,87.613,37.2161,199.7849,0.00016186,2.288e-05,0.0,0 STARLINK-3218,1 49725U 21115B   22099.91667824  .00002288  00000-0  16186-3 0  9997,2 49725  53.2175  87.6130 0002203  37.2161 199.7849 15.08835432  3609,6917.894,95.438,541.283,538.235,0.0
49725.0,STARLINK-3218,PAYLOAD,2022-04-10 14:00:01,15.08875426,0.0002155,53.2169,84.6161,34.4266,225.8052,-0.0045756999999999,-0.00072451,0.0,0 STARLINK-3218,1 49725U 21115B   22100.58334491 -.00072451  00000-0 -45757-2 0  9990,2 49725  53.2169  84.6161 0002155  34.4266 225.8052 15.08875426  3608,6917.772,95.435,541.128,538.146,0.0
49725.0,STARLINK-3218,PAYLOAD,2022-04-10 20:00:01,15.08814888,0.0001984,53.2168,83.4927,36.1936,142.7393,0.0028284,0.00044983,0.0,0 STARLINK-3218,1 49725U 21115B   22100.83334491  .00044983  00000-0  28284-2 0  9991,2 49725  53.2168  83.4927 0001984  36.1936 142.7393 15.08814888 20942,6917.956999999999,95.439,541.195,538.45,0.0
49725.0,STARLINK-3218,PAYLOAD,2022-04-10 22:00:00,15.08833333,0.0001972,53.2168,83.1191,38.2433,233.579,0.0011594,0.00018209,0.0,0 STARLINK-3218,1 49725U 21115B   22100.91667824  .00018209  00000-0  11594-2 0  9997,2 49725  53.2168  83.1191 0001972  38.2433 233.5790 15.08833333  3604,6917.901,95.438,541.13,538.4019999999998,0.0
49725.0,STARLINK-3218,PAYLOAD,2022-04-11 04:00:01,15.08841186,0.0002115,53.217,81.9977,34.1799,156.3945,-0.0030619,-0.00048692,0.0,0 STARLINK-3218,1 49725U 21115B   22101.16668981 -.00048692  00000-0 -30619-2 0  9990,2 49725  53.2170  81.9977 0002115  34.1799 156.3945 15.08841186 20995,6917.877,95.437,541.205,538.279,0.0
49725.0,STARLINK-3218,PAYLOAD,2022-04-11 12:00:00,15.0882139,0.0002188,53.2167,80.5016,31.3125,170.7708,0.00013213,1.814e-05,0.0,0 STARLINK-3218,1 49725U 21115B   22101.50001157  .00001814  00000-0  13213-3 0  9999,2 49725  53.2167  80.5016 0002188  31.3125 170.7708 15.08821390 21041,6917.937,95.439,541.316,538.289,0.0
49725.0,STARLINK-3218,PAYLOAD,2022-04-11 14:00:01,15.0883579,0.0002133,53.2168,80.127,32.0801,262.8924,-0.0017842,-0.00028569,0.0,0 STARLINK-3218,1 49725U 21115B   22101.58334491 -.00028569  00000-0 -17842-2 0  9996,2 49725  53.2168  80.1270 0002133  32.0801 262.8924 15.08835790  3591,6917.893,95.438,541.234,538.283,0.0
49725.0,STARLINK-3218,PAYLOAD,2022-04-11 22:00:00,15.08817349,0.0002036,53.217,78.6294,37.4111,269.1378,0.0021289,0.00033735,0.0,0 STARLINK-3218,1 49725U 21115B   22101.91667824  .00033735  00000-0  21289-2 0  9991,2 49725  53.2170  78.6294 0002036  37.4111 269.1378 15.08817349  3590,6917.95,95.439,541.2230000000002,538.406,0.0
49725.0,STARLINK-3218,PAYLOAD,2022-04-12 14:00:01,15.08855272,0.0002239,53.217,75.6376,34.2282,295.4821,-0.0018965,-0.00030358,0.0,0 STARLINK-3218,1 49725U 21115B   22102.58334491 -.00030358  00000-0 -18965-2 0  9993,2 49725  53.2170  75.6376 0002239  34.2282 295.4821 15.08855272  3601,6917.834,95.437,541.248,538.15,0.0
49725.0,STARLINK-3218,PAYLOAD,2022-04-12 20:00:01,15.08824344,0.0002136,53.2171,74.5141,37.8573,210.5591,0.0028055,0.00044626,0.0,0 STARLINK-3218,1 49725U 21115B   22102.83334491  .00044626  00000-0  28055-2 0  9993,2 49725  53.2171  74.5141 0002136  37.8573 210.5591 15.08824344 21246,6917.928000000001,95.439,541.271,538.316,0.0
49725.0,STARLINK-3218,PAYLOAD,2022-04-12 22:00:00,15.08839517,0.0002145,53.2175,74.1402,38.9103,302.3988,0.001743,0.00027561,0.0,0 STARLINK-3218,1 49725U 21115B   22102.91667824  .00027561  00000-0  17430-2 0  9995,2 49725  53.2175  74.1402 0002145  38.9103 302.3988 15.08839517  3560,6917.882,95.438,541.231,538.263,0.0
49725.0,STARLINK-3218,PAYLOAD,2022-04-13 12:00:00,15.08852075,0.0002293,53.2173,71.5228,33.2745,238.3456,-0.0014339,-0.00023045,0.0,0 STARLINK-3218,1 49725U 21115B   22103.50001157 -.00023045  00000-0 -14339-2 0  9992,2 49725  53.2173  71.5228 0002293  33.2745 238.3456 15.08852075 21347,6917.843000000003,95.437,541.295,538.122,0.0
